OSCAR 7 (AO-7)          
1 07530U 74089B   20321.59583149 -.00000053  00000-0 -46777-4 0  9990
2 07530 101.8232 290.6002 0012518  71.0443  58.8794 12.53646098105291
UOSAT 2 (UO-11)         
1 14781U 84021B   20321.75757980  .00000117  00000-0  20387-4 0  9995
2 14781  97.5899 326.1541 0009821  65.3817 294.8419 14.83210614975404
LUSAT (LO-19)           
1 20442U 90005G   20321.80163592  .00000014  00000-0  21548-4 0  9997
2 20442  98.7114 269.6898 0012806  68.4175 291.8372 14.32966597610438
EYESAT A (AO-27)        
1 22825U 93061C   20321.75678123 -.00000005  00000-0  16299-4 0  9992
2 22825  98.9256 328.0642 0007498 297.2468  62.7949 14.30097683415852
ITAMSAT (IO-26)         
1 22826U 93061D   20321.63748667  .00000001  00000-0  18195-4 0  9993
2 22826  98.9198 327.8721 0007942 283.7583  76.2715 14.30434611416055
RADIO ROSTO (RS-15)     
1 23439U 94085A   20321.93538880 -.00000037  00000-0  15882-3 0  9997
2 23439  64.8196 359.6628 0153401  13.6676 346.8333 11.27569088 66378
JAS-2 (FO-29)           
1 24278U 96046B   20321.78753055 -.00000026  00000-0  11856-4 0  9990
2 24278  98.5892  51.7201 0349987 340.6056  18.2037 13.53100468197487
TECHSAT 1B (GO-32)      
1 25397U 98043D   20321.74141758 -.00000012  00000-0  14264-4 0  9990
2 25397  98.7447 262.1777 0001401  25.7757 334.3491 14.23694635161220
ISS (ZARYA)             
1 25544U 98067A   20322.30955616  .00001867  00000-0  41962-4 0  9992
2 25544  51.6460 310.7959 0001726  58.3774  75.5899 15.49044095255756
PCSAT (NO-44)           
1 26931U 01043C   20321.78768199 -.00000033  00000-0  19316-4 0  9993
2 26931  67.0501 109.2730 0006965 275.2937  84.7369 14.30594733998939
SAUDISAT 1C (SO-50)     
1 27607U 02058C   20321.57944597  .00000033  00000-0  25135-4 0  9991
2 27607  64.5553 269.2499 0031420 120.4680 239.9532 14.75678260963304
CUTE-1 (CO-55)          
1 27844U 03031E   20321.74148206  .00000065  00000-0  49156-4 0  9992
2 27844  98.6823 327.1827 0009476 340.6797  19.4021 14.22268205901789
CUBESAT XI-IV (CO-57)   
1 27848U 03031J   20321.74218046  .00000048  00000-0  41702-4 0  9996
2 27848  98.6888 327.7502 0009567 353.9025   6.2034 14.21851145901612
MOZHAYETS 4 (RS-22)     
1 27939U 03042A   20321.90961146  .00000106  00000-0  27740-4 0  9994
2 27939  98.1116  94.9055 0012018 227.4526 132.5652 14.66905712916360
CUBESAT XI-V            
1 28895U 05043F   20321.64376865  .00000184  00000-0  44210-4 0  9995
2 28895  98.0315  93.9364 0017357 157.2543 202.9433 14.63823827803103
CUTE-1.7+APD II (CO-65) 
1 32785U 08021C   20321.72601495  .00000322  00000-0  40197-4 0  9990
2 32785  97.5884 303.1694 0012838 355.3220   4.7876 14.88554581680595
DELFI-C3 (DO-64)        
1 32789U 08021G   20321.76181257  .00001535  00000-0  10320-3 0  9998
2 32789  97.4022 359.1347 0012871 147.4779 212.7245 15.08118220684868
SEEDS II (CO-66)        
1 32791U 08021J   20321.73081651  .00000574  00000-0  63178-4 0  9997
2 32791  97.5526 309.2565 0012281 320.5335  39.4989 14.91167275681070
YUBILEINY (RS-30)       
1 32953U 08025A   20321.91305974  .00000028  00000-0  12906-3 0  9994
2 32953  82.5042 183.1072 0019896  80.2211 280.1108 12.43098855566578
KKS-1 (KISEKI)          
1 33499U 09002H   20321.75586290  .00000152  00000-0  30262-4 0  9994
2 33499  98.2949 180.5984 0009250   7.6091 352.5256 14.75579048635478
SWISSCUBE               
1 35932U 09051B   20321.80317414  .00000164  00000-0  47955-4 0  9998
2 35932  98.6088 149.0153 0008052  27.3566 332.8054 14.56447578592046
BEESAT-1                
1 35933U 09051C   20321.70927035  .00000143  00000-0  43160-4 0  9995
2 35933  98.6071 150.7825 0006478  41.4786 318.6901 14.56516488592146
ITUPSAT1                
1 35935U 09051E   20321.44986510  .00000103  00000-0  34783-4 0  9998
2 35935  98.6176 150.6918 0008775  40.1657 320.0186 14.55656624591812
XIWANG-1 (HOPE-1)       
1 36122U 09072B   20321.71801122 -.00000053  00000-0 -29101-4 0  9999
2 36122 100.1074 305.4535 0006913 230.6707 129.3789 13.16357025524900
JUGNU                   
1 37839U 11058B   20321.65202962  .00000319  00000-0  28063-4 0  9991
2 37839  19.9614  79.7577 0018813 266.6489 216.2733 14.12694901470446
SRMSAT                  
1 37841U 11058D   20321.80492015  .00000273  00000-0  46996-5 0  9996
2 37841  19.9707 146.3130 0011898 117.6546 354.1331 14.10678124469792
M-CUBED & EXP-1 PRIME   
1 37855U 11061F   20321.73415707  .00001453  00000-0  78465-4 0  9996
2 37855 101.7279 128.8073 0169642 342.8677  16.6851 15.06735245494609
STRAND-1                
1 39090U 13009E   20321.83511294  .00000051  00000-0  32715-4 0  9993
2 39090  98.4410 162.8479 0008930 184.5750 175.5356 14.35153228404561
SOMP                    
1 39134U 13015E   20321.76225326  .00002086  00000-0  10096-3 0  9996
2 39134  64.8621 143.6000 0019855 221.3031 138.6596 15.21498963419227
BEESAT-3                
1 39135U 13015F   20321.78869957  .00001554  00000-0  84153-4 0  9998
2 39135  64.8653 169.3235 0023603 216.9139 143.0364 15.18528894418341
BEESAT-2                
1 39136U 13015G   20321.76532810  .00001362  00000-0  75766-4 0  9999
2 39136  64.8753 174.9372 0034093 264.8431  94.8804 15.17937495418239
ZACUBE-1 (TSHEPISOSAT)  
1 39417U 13066B   20321.55354044  .00000285  00000-0  41814-4 0  9995
2 39417  97.5750 311.1949 0059747 138.0730 222.5081 14.81353928377552
GOMX-1                  
1 39430U 13066Q   20321.87373660  .00000338  00000-0  69501-4 0  9992
2 39430  97.8016 251.2643 0152126  64.6052 297.0812 14.59467612372034
CUBEBUG-2 (LO-74)       
1 39440U 13066AA  20321.74562877  .00000253  00000-0  42033-4 0  9996
2 39440  97.6493 295.9751 0079308 204.9086 154.8288 14.76091617376244
FUNCUBE-1 (AO-73)       
1 39444U 13066AE  20321.73309038  .00000352  00000-0  49122-4 0  9993
2 39444  97.5677 313.6694 0059003 129.0927 231.5556 14.82224028376518
UWE-3                   
1 39446U 13066AG  20321.67667909  .00000251  00000-0  39724-4 0  9997
2 39446  97.6136 303.0294 0069961 172.0234 188.2108 14.78623315375655
SPROUT                  
1 39770U 14029E   20321.87753413  .00001199  00000-0  13670-3 0  9998
2 39770  97.9053  67.6008 0009125 179.6663 180.4560 14.87974948351726
UNISAT-6                
1 40012U 14033C   20321.58510204  .00000241  00000-0  43099-4 0  9997
2 40012  97.6916 168.9663 0057126 227.8270 131.8081 14.74184570344830
DUCHIFAT-1              
1 40021U 14033M   20321.75755498  .00000715  00000-0  78023-4 0  9993
2 40021  97.9524 253.9910 0013558 140.1995 220.0220 14.91044101348586
QB50P1                  
1 40025U 14033R   20321.77956958  .00000371  00000-0  45181-4 0  9990
2 40025  97.9199 246.0881 0012921 152.1955 207.9955 14.89236966348274
NUDT-PHONESAT           
1 40900U 15049B   20321.87324382  .00003466  00000-0  14242-3 0  9992
2 40900  97.4278 331.5491 0012821 160.2502 283.4096 15.24790270286418
ZDPS 2A                 
1 40901U 15049C   20321.83105081  .00001810  00000-0  90536-4 0  9994
2 40901  97.4631 325.5769 0012663 195.6365 265.5268 15.18658542285695
ZDPS 2B                 
1 40902U 15049D   20321.87616947  .00002116  00000-0  10525-3 0  9996
2 40902  97.4637 322.8946 0012721 192.5710 251.9489 15.18665089285670
XW-2A                   
1 40903U 15049E   20321.87364427  .00003431  00000-0  77601-4 0  9990
2 40903  97.2692  10.8193 0014619  71.9331  42.3379 15.43750987289983
KAITUO 1A               
1 40904U 15049F   20321.88534416  .00000676  00000-0  38763-4 0  9993
2 40904  97.4814 320.6783 0013545 209.2110 243.4794 15.15858351285330
2015-049G               
1 40905U 15049G   20321.88292403  .00000411  00000-0  25762-4 0  9993
2 40905  97.4918 317.8170 0014601 207.5897 215.9490 15.14691523285153
XW-2C                   
1 40906U 15049H   20321.83945897  .00000707  00000-0  39932-4 0  9993
2 40906  97.4808 321.0017 0013968 199.3441 281.3027 15.16276259285348
XW-2D                   
1 40907U 15049J   20321.86804119  .00001376  00000-0  73897-4 0  9999
2 40907  97.4799 320.7636 0013607 195.4592 249.1363 15.16539210285372
LILACSAT-2              
1 40908U 15049K   20321.90220928  .00000245  00000-0  17013-4 0  9997
2 40908  97.4973 318.9425 0014977 209.2332 212.7397 15.14163487285065
XW-2F                   
1 40910U 15049M   20321.82099230  .00001625  00000-0  82472-4 0  9995
2 40910  97.4711 323.5148 0014364 184.1041 254.3447 15.18273149285452
XW-2B                   
1 40911U 15049N   20321.85999306  .00001225  00000-0  66302-4 0  9992
2 40911  97.4805 321.4547 0013352 196.5347 250.3267 15.16461571285260
KAITUO 1B               
1 40912U 15049P   20321.84518726  .00001726  00000-0  81453-4 0  9995
2 40912  97.4480 327.8202 0015055 160.1128 322.7601 15.20708106285870
TIANWANG 1C (TW-1C)     
1 40926U 15051B   20321.88707845  .00064492  00000-0  42447-3 0  9997
2 40926  97.0630  15.2823 0003743 206.9857 267.3613 15.75480817290930
TIANWANG 1A (TW-1A)     
1 40928U 15051D   20321.86442034  .00005129  00000-0  11586-3 0  9995
2 40928  97.0973 345.9642 0010110   2.6973  80.4977 15.43575909288879
LAPAN-A2                
1 40931U 15052B   20321.58799432  .00000847  00000-0  28748-4 0  9997
2 40931   6.0037 330.5210 0013763 270.4142  89.4187 14.76651600277783
E-ST@R-II               
1 41459U 16025D   20321.88303588  .00002065  00000-0  10554-3 0  9999
2 41459  98.1184  79.9829 0164344  59.0117 302.7155 15.06957484250396
AAUSAT 4                
1 41460U 16025E   20321.77772469  .00002583  00000-0  12657-3 0  9998
2 41460  98.1174  82.7750 0152659  46.3007 315.0730 15.09495112250614
NUSAT-1 (FRESCO)        
1 41557U 16033B   20321.89628146  .00002178  00000-0  81294-4 0  9993
2 41557  97.4013  51.1412 0011654 268.2537 184.9237 15.28438693249055
BEESAT-4                
1 41619U 16040W   20321.66853506  .00002181  00000-0  91555-4 0  9990
2 41619  97.3014  17.4787 0011071  12.0688 348.0813 15.24461614232587
